TDRS 3                  
1 19548U 88091B   19236.43434314 -.00000299  00000-0  00000+0 0  9990
2 19548  14.3115   0.1233 0032618 317.0903 122.4920  1.00264506100416
FLTSATCOM 8 (USA 46)    
1 20253U 89077A   19236.03651262 -.00000080  00000-0  00000+0 0  9997
2 20253  13.0576   7.8971 0002198 140.4681 268.8526  1.00271440235659
SKYNET 4C               
1 20776U 90079A   19236.03875890  .00000126  00000-0  00000+0 0  9996
2 20776  13.9838   8.5081 0002504 156.7145 214.2451  1.00270113105985
TDRS 5                  
1 21639U 91054B   19235.60946771  .00000085  00000-0  00000-0 0  9993
2 21639  14.4057  13.4066 0021765   4.2687   5.6751  1.00273265102757
TDRS 6                  
1 22314U 93003B   19235.83990439 -.00000295  00000-0  00000+0 0  9998
2 22314  14.0734  16.4839 0000945  23.2699 188.4397  1.00266974 97419
UFO 2 (USA 95)          
1 22787U 93056A   19236.51017917  .00000126  00000-0  00000+0 0  9999
2 22787  11.1835  17.2674 0005276 125.4518  42.1859  1.00270044 93706
USA 99 (MILSTAR-1 1)    
1 22988U 94009A   19236.36646428 -.00000270  00000-0  00000+0 0  9990
2 22988  13.6408  54.5197 0002639  95.4417 275.5508  1.00271786  6699
ASTRA 1D                
1 23331U 94070A   19235.91549123 -.00000270  00000-0  00000+0 0  9995
2 23331   8.6962  43.9837 0003368 104.7292  79.7677  1.00270760 91202
UFO 4 (USA 108)         
1 23467U 95003A   19236.17976618 -.00000024  00000-0  00000+0 0  9991
2 23467   9.8790  22.4786 0004037  98.8328  87.7688  1.00270270 90011
AMSC 1                  
1 23553U 95019A   19235.98056920 -.00000099  00000-0  00000+0 0  9999
2 23553  10.9686  33.3717 0005725  59.0761 126.0042  1.00272560 89208
TDRS 7                  
1 23613U 95035B   19236.37770442 -.00000202  00000-0  00000+0 0  9996
2 23613  14.2379   7.1776 0028435  27.0103 159.0802  1.00274741 88193
USA 113                 
1 23628U 95038A   19235.88313515 -.00000338  00000-0  00000-0 0  9995
2 23628  11.1574  32.2559 0000901 143.6251 217.7063  1.00267758  8011
USA 115 (MILSTAR-1 2)   
1 23712U 95060A   19235.89146571 -.00000201  00000-0  00000-0 0  9990
2 23712  13.0497  22.4361 0001864 126.8530  53.5096  1.00275006  7953
INMARSAT 3-F1           
1 23839U 96020A   19236.51724528  .00000002  00000-0  00000+0 0  9998
2 23839   5.4928  63.7911 0005646  90.8747  68.5433  1.00270412 85669
ASTRA 1F                
1 23842U 96021A   19235.85605087  .00000136  00000-0  00000-0 0  9996
2 23842   0.0752 298.5126 0004486 215.3134 170.4868  1.00269917 27377
MSAT M1                 
1 23846U 96022A   19235.54962387 -.00000088  00000-0  00000+0 0  9992
2 23846   8.8772  43.3767 0004966  89.5516 288.9827  1.00272517 85479
INMARSAT 3-F2           
1 24307U 96053A   19236.48174455 -.00000295  00000-0  00000+0 0  9994
2 24307   4.2669  73.6174 0005209  58.1363 158.6225  1.00004571 84060
AMC-1 (GE-1)            
1 24315U 96054A   19235.35055925  .00000063  00000-0  00000+0 0  9991
2 24315   3.2636  80.7162 0003095  63.1594 182.7858  1.00273719 84052
INMARSAT 3-F3           
1 24674U 96070A   19236.47462639  .00000030  00000-0  00000+0 0  9999
2 24674   4.9997  67.8399 0005273  86.9383 166.6550  1.00269395 83015
AMC-2 (GE-2)            
1 24713U 97002A   19236.13174206 -.00000216  00000-0  00000+0 0  9999
2 24713   5.8043  61.9089 0005158  95.5337 137.2505  1.00270772 33367
INTELSAT 26 (IS-26)     
1 24732U 97007A   19236.08595017  .00000015  00000-0  00000+0 0  9992
2 24732   8.6188  44.7592 0002255  93.5701 286.8771  1.00273321 82324
USA 130 (DSP 18)        
1 24737U 97008A   19236.17204142  .00000028  00000-0  00000+0 0  9998
2 24737  13.4090  22.3486 0000944 309.4330  70.4491  1.00263878  6653
GALAXY 25 (G-25)        
1 24812U 97026A   19236.33868712  .00000122  00000-0  00000+0 0  9994
2 24812   1.2270  92.8896 0005005  66.8732 307.5564  1.00619848 81416
INTELSAT 5 (IS-5)       
1 24916U 97046A   19235.68719490  .00000088  00000-0  00000-0 0  9998
2 24916   5.1054  67.1609 0003071  65.3884 309.5194  1.00273029 80668
AMC-3 (GE-3)            
1 24936U 97050A   19236.43494493 -.00000264  00000-0  00000+0 0  9998
2 24936   2.1138  87.9429 0002767  74.4584 254.6077  1.00272635 80492
NSS-5                   
1 24957U 97053A   19236.16535201  .00000102  00000-0  00000+0 0  9997
2 24957   5.3739  65.3428 0003637  88.5127 288.3254  1.00273262 80287
USA 134                 
1 25019U 97065A   19236.13246748 -.00000060  00000-0  00000+0 0  9996
2 25019   9.8698  38.0517 0003367 267.0346 322.4676  1.00271860  6641
ASTRA 1G                
1 25071U 97076A   19235.71577279  .00000016  00000-0  00000-0 0  9996
2 25071   3.9710  74.8784 0003576  79.8557 137.9143  1.00270763 79591
INMARSAT 3-F5           
1 25153U 98006B   19236.49360434 -.00000293  00000-0  00000+0 0  9997
2 25153   4.1837  71.6394 0004789  83.3544 301.2224  1.00272122 78934
UFO 8 (USA 138)         
1 25258U 98016A   19236.29027703 -.00000025  00000-0  00000+0 0  9994
2 25258   8.3611  33.9937 0001908 120.9040  93.5311  1.00276418 78614
INTELSAT 805 (IS-805)   
1 25371U 98037A   19236.46760047 -.00000034  00000-0  00000+0 0  9997
2 25371   1.7590  90.1190 0003194  71.3226 148.4449  1.00272833 77600
ASTRA 2A                
1 25462U 98050A   19236.50396616 -.00000308  00000-0  00000+0 0  9999
2 25462   0.9247  96.6365 0002601  55.7626 101.5435  1.00271222 76782
JCSAT-4A                
1 25630U 99006A   19236.47618743 -.00000207  00000-0  00000+0 0  9990
2 25630   3.9540  75.8162 0003277  61.2510 156.8281  1.00273208 75042
SKYNET 4E               
1 25639U 99009B   19235.67688329 -.00000032  00000-0  00000+0 0  9996
2 25639  10.7052  22.9171 0002913 132.1260  59.0965  1.00273659 75058
ASIASAT 3S              
1 25657U 99013A   19236.48174455 -.00000229  00000-0  00000+0 0  9999
2 25657   4.1497  74.2095 0002420  80.7452 138.4612  1.00271923 74868
NIMIQ 1                 
1 25740U 99027A   19236.39424421 -.00000202  00000-0  00000+0 0  9999
2 25740   0.3947  96.6565 0005261  61.9063 229.2276  1.00273061 74257
ASTRA 1H                
1 25785U 99033A   19236.41922872 -.00000281  00000-0  00000+0 0  9998
2 25785   5.3573  65.4751 0003143  84.7488 266.0401  1.00271052 73827
ABS-7                   
1 25894U 99046A   19236.57583311 -.00000366  00000-0  00000+0 0  9995
2 25894   0.2723  97.9125 0002058  82.0959 115.9762  1.00270972 72182
ABS-6                   
1 25924U 99053A   19235.92896572 -.00000123  00000-0  00000-0 0  9993
2 25924   0.0473 290.9728 0002569 217.7489 316.6104  1.00270798 72920
TELSTAR 12 (ORION 2)    
1 25949U 99059A   19236.53835563 -.00000068  00000-0  00000+0 0  9994
2 25949   2.6275  86.2129 0003229  87.4595 243.4528  1.00271910 72575
AMC-4 (GE-4)            
1 25954U 99060A   19235.61601039  .00000085  00000-0  00000-0 0  9998
2 25954   0.0971 281.3128 0002640 244.1466 253.0190  1.00270854 18688
UFO 10 (USA 146)        
1 25967U 99063A   19236.30236167 -.00000183  00000-0  00000+0 0  9997
2 25967   7.5327  36.5018 0004059  68.6015 313.9202  1.00270800 72380
GALAXY 11 (G-11)        
1 26038U 99071A   19236.13729911 -.00000166  00000-0  00000+0 0  9992
2 26038   0.5257 101.0533 0000383  71.1521 116.2518  1.00271746 72117
USA 148                 
1 26052U 00001A   19235.75061539  .00000039  00000-0  00000-0 0  9994
2 26052   7.9557  48.3365 0001571  42.7845 330.9710  1.00272549  8004
ASIASTAR                
1 26107U 00016A   19236.50344532 -.00000338  00000-0  00000+0 0  9994
2 26107   3.3539  78.8480 0003992  76.1384 103.7795  1.00272145 71190
USA 149 (DSP 20)        
1 26356U 00024A   19236.11242008  .00000099  00000-0  00000+0 0  9994
2 26356  11.3005  28.5999 0000923  40.2433 138.3084  1.00282650  6643
EUTELSAT 80A            
1 26369U 00028A   19236.16091678  .00000118  00000-0  00000+0 0  9994
2 26369   2.7167  82.9069 0003674  71.2257 284.0367  1.00272393 70519
TDRS 8                  
1 26388U 00034A   19236.46368819 -.00000236  00000-0  00000+0 0  9991
2 26388   8.7664  49.6303 0009919 311.2112 227.8564  1.00274812 70213
INTELSAT 9 (IS-9)       
1 26451U 00043A   19235.79232428 -.00000011  00000-0  00000+0 0  9994
2 26451   5.0920  67.3564 0002816 102.9081 152.9030  1.00271872 69884
BRASILSAT B4            
1 26469U 00046A   19236.36229928 -.00000175  00000-0  00000+0 0  9992
2 26469   3.3258  80.4513 0002874  62.8609 227.4512  1.00270589 69676
ASTRA 2B                
1 26494U 00054A   19235.86210285  .00000114  00000-0  00000-0 0  9992
2 26494   3.8674  75.5192 0004867  73.4631 152.6389  1.00269134 21927
AMC-7 (GE-7)            
1 26495U 00054B   19236.52016138  .00000084  00000-0  00000+0 0  9993
2 26495   0.6232  95.2748 0003039  61.7534 227.7298  1.00273298 69304
NSS-11 (AAP-1)          
1 26554U 00059A   19236.10871873  .00000022  00000-0  00000+0 0  9995
2 26554   0.0564 291.1847 0001639 211.4454  44.6206  1.00270783 69219
USA 153                 
1 26575U 00065A   19236.38756208 -.00000327  00000-0  00000+0 0  9998
2 26575   7.4109  51.5291 0000931 103.1939  91.4987  1.00266891  6658
AMC-6 (GE-6)            
1 26580U 00067A   19236.13174206 -.00000219  00000-0  00000+0 0  9991
2 26580   0.0522 293.3959 0002362 222.0688 141.0920  1.00273598 69022
INTELSAT 12 (IS-12)     
1 26590U 00068A   19236.44513778  .00000008  00000-0  00000+0 0  9993
2 26590   2.2263  87.6359 0003762  43.5454  65.7444  1.00273158 68843
INTELSAT 1R (IS-1R)     
1 26608U 00072A   19236.47618743 -.00000142  00000-0  00000+0 0  9999
2 26608   2.0262  88.7721 0000699  92.8268 119.3866  1.00271884 68692
ANIK F1                 
1 26624U 00076A   19236.54022642 -.00000078  00000-0  00000+0 0  9994
2 26624   0.0166 158.7001 0002971 355.5173 265.4892  1.00272538 68777
ASTRA 2D                
1 26638U 00081A   19236.29003234  .00000025  00000-0  00000+0 0  9994
2 26638   5.1958  66.2538 0001655  80.5906 294.9835  1.00271320 68437
